{"type": "FeatureCollection", "features": [ {"type": "Feature", "properties": {"norad_id": 31841, "name": "FENGYUN 1C DEB", "group": "fengyun-1c-debris", "lat": -3.5862064627750145, "lon": 165.05415412658965, "alt_km": 834.030085928709, "timestamp": "2025-12-22T11:33:20.723971+00:00", "meta": {"OBJECT_NAME": "FENGYUN 1C DEB", "OBJECT_ID": "1999-025CJF", "EPOCH": "2025-12-20T17:06:06.055776", "MEAN_MOTION": 14.03626742, "ECCENTRICITY": 0.03086895, "INCLINATION": 98.4167, "RA_OF_ASC_NODE": 162.8817, "ARG_OF_PERICENTER": 282.8098, "MEAN_ANOMALY": 136.7596, "EPHEMERIS_TYPE": 0, "CLASSIFICATION_TYPE": "U", "NORAD_CAT_ID": 31841, "ELEMENT_SET_NO": 999, "REV_AT_EPOCH": 59451, "BSTAR": 0.0011379131, "MEAN_MOTION_DOT": 2.684e-05, "MEAN_MOTION_DDOT": 0}, "tle": {"line1": "1 31841U 99025CJF 25354.71257009  .00002684  00000+0  11379-2 0  9994", "line2": "2 31841  98.4167 162.8817 0308689 282.8098 136.7596 14.03626742594514"}}, "geometry": {"type": "Point", "coordinates": [165.05415412658965, -3.5862064627750145]}}, {"type": "Feature", "properties": {"norad_id": 31843, "name": "FENGYUN 1C DEB", "group": "fengyun-1c-debris", "lat": -66.16420326391278, "lon": 94.61046391785594, "alt_km": 1043.5045620382234, "timestamp": "2025-12-22T11:33:20.723981+00:00", "meta": {"OBJECT_NAME": "FENGYUN 1C DEB", "OBJECT_ID": "1999-025CJH", "EPOCH": "2025-12-16T15:40:09.812640", "MEAN_MOTION": 13.33949191, "ECCENTRICITY": 0.06398792, "INCLINATION": 99.2827, "RA_OF_ASC_NODE": 291.0118, "ARG_OF_PERICENTER": 344.4578, "MEAN_ANOMALY": 13.7684, "EPHEMERIS_TYPE": 0, "CLASSIFICATION_TYPE": "U", "NORAD_CAT_ID": 31843, "ELEMENT_SET_NO": 999, "REV_AT_EPOCH": 64748, "BSTAR": 0.0054292253, "MEAN_MOTION_DOT": 8.684e-05, "MEAN_MOTION_DDOT": 0}, "tle": {"line1": "1 31843U 99025CJH 25350.65289135  .00008684  00000+0  54292-2 0  9997", "line2": "2 31843  99.2827 291.0118 0639879 344.4578  13.7684 13.33949191647488"}}, "geometry": {"type": "Point", "coordinates": [94.61046391785594, -66.16420326391278]}}, {"type": "Feature", "properties": {"norad_id": 31844, "name": "FENGYUN 1C DEB", "group": "fengyun-1c-debris", "lat": 54.77242793842524, "lon": -178.34678935036789, "alt_km": 890.3677048430618, "timestamp": "2025-12-22T11:33:20.723992+00:00", "meta": {"OBJECT_NAME": "FENGYUN 1C DEB", "OBJECT_ID": "1999-025CJJ", "EPOCH": "2025-12-20T16:41:28.070592", "MEAN_MOTION": 14.19779553, "ECCENTRICITY": 0.01032365, "INCLINATION": 100.3021, "RA_OF_ASC_NODE": 344.6516, "ARG_OF_PERICENTER": 329.2004, "MEAN_ANOMALY": 30.3135, "EPHEMERIS_TYPE": 0, "CLASSIFICATION_TYPE": "U", "NORAD_CAT_ID": 31844, "ELEMENT_SET_NO": 999, "REV_AT_EPOCH": 95445, "BSTAR": 0.00064638823, "MEAN_MOTION_DOT": 1.386e-05, "MEAN_MOTION_DDOT": 0}, "tle": {"line1": "1 31844U 99025CJJ 25354.69546378  .00001386  00000+0  64639-3 0  9990", "line2": "2 31844 100.3021 344.6516 0103236 329.2004  30.3135 14.19779553954456"}}, "geometry": {"type": "Point", "coordinates": [-178.34678935036789, 54.77242793842524]}}, {"type": "Feature", "properties": {"norad_id": 31850, "name": "FENGYUN 1C DEB", "group": "fengyun-1c-debris", "lat": 20.548262209148703, "lon": 39.36707607970345, "alt_km": 418.3682110814407, "timestamp": "2025-12-22T11:33:20.724002+00:00", "meta": {"OBJECT_NAME": "FENGYUN 1C DEB", "OBJECT_ID": "1999-025CJQ", "EPOCH": "2025-12-14T09:23:04.476192", "MEAN_MOTION": 15.33433546, "ECCENTRICITY": 0.00762245, "INCLINATION": 98.5734, "RA_OF_ASC_NODE": 33.2199, "ARG_OF_PERICENTER": 83.7911, "MEAN_ANOMALY": 277.2005, "EPHEMERIS_TYPE": 0, "CLASSIFICATION_TYPE": "U", "NORAD_CAT_ID": 31850, "ELEMENT_SET_NO": 999, "REV_AT_EPOCH": 65854, "BSTAR": 0.0030655456, "MEAN_MOTION_DOT": 0.00109983, "MEAN_MOTION_DDOT": 0}, "tle": {"line1": "1 31850U 99025CJQ 25348.39102403  .00109983  00000+0  30655-2 0  9996", "line2": "2 31850  98.5734  33.2199 0076224  83.7911 277.2005 15.33433546658540"}}, "geometry": {"type": "Point", "coordinates": [39.36707607970345, 20.548262209148703]}}, {"type": "Feature", "properties": {"norad_id": 31854, "name": "FENGYUN 1C DEB", "group": "fengyun-1c-debris", "lat": -27.64050351681041, "lon": 174.7318199139101, "alt_km": 891.8533088199383, "timestamp": "2025-12-22T11:33:20.724012+00:00", "meta": {"OBJECT_NAME": "FENGYUN 1C DEB", "OBJECT_ID": "1999-025CJU", "EPOCH": "2025-12-21T17:27:39.190752", "MEAN_MOTION": 14.03088921, "ECCENTRICITY": 0.0072341, "INCLINATION": 98.848, "RA_OF_ASC_NODE": 358.6778, "ARG_OF_PERICENTER": 116.2745, "MEAN_ANOMALY": 244.5878, "EPHEMERIS_TYPE": 0, "CLASSIFICATION_TYPE": "U", "NORAD_CAT_ID": 31854, "ELEMENT_SET_NO": 999, "REV_AT_EPOCH": 69398, "BSTAR": 0.00055937, "MEAN_MOTION_DOT": 8.48e-06, "MEAN_MOTION_DDOT": 0}, "tle": {"line1": "1 31854U 99025CJU 25355.72753693  .00000848  00000+0  55937-3 0  9999", "line2": "2 31854  98.8480 358.6778 0072341 116.2745 244.5878 14.03088921693986"}}, "geometry": {"type": "Point", "coordinates": [174.7318199139101, -27.64050351681041]}}, {"type": "Feature", "properties": {"norad_id": 31857, "name": "FENGYUN 1C DEB", "group": "fengyun-1c-debris", "lat": -28.015042289424418, "lon": 25.824398836448943, "alt_km": 975.9168637837329, "timestamp": "2025-12-22T11:33:20.724022+00:00", "meta": {"OBJECT_NAME": "FENGYUN 1C DEB", "OBJECT_ID": "1999-025CJX", "EPOCH": "2025-12-21T19:49:30.663840", "MEAN_MOTION": 13.61956441, "ECCENTRICITY": 0.030968, "INCLINATION": 96.1878, "RA_OF_ASC_NODE": 22.0982, "ARG_OF_PERICENTER": 256.7702, "MEAN_ANOMALY": 99.8737, "EPHEMERIS_TYPE": 0, "CLASSIFICATION_TYPE": "U", "NORAD_CAT_ID": 31857, "ELEMENT_SET_NO": 999, "REV_AT_EPOCH": 61753, "BSTAR": 0.0014311, "MEAN_MOTION_DOT": 1.495e-05, "MEAN_MOTION_DDOT": 0}, "tle": {"line1": "1 31857U 99025CJX 25355.82604935  .00001495  00000+0  14311-2 0  9996", "line2": "2 31857  96.1878  22.0982 0309680 256.7702  99.8737 13.61956441617538"}}, "geometry": {"type": "Point", "coordinates": [25.824398836448943, -28.015042289424418]}}, {"type": "Feature", "properties": {"norad_id": 31861, "name": "FENGYUN 1C DEB", "group": "fengyun-1c-debris", "lat": -75.4131664449744, "lon": -111.6799303028566, "alt_km": 1159.4679036223097, "timestamp": "2025-12-22T11:33:20.724032+00:00", "meta": {"OBJECT_NAME": "FENGYUN 1C DEB", "OBJECT_ID": "1999-025CKB", "EPOCH": "2025-12-17T09:15:31.165632", "MEAN_MOTION": 13.30336222, "ECCENTRICITY": 0.04947395, "INCLINATION": 102.3406, "RA_OF_ASC_NODE": 184.9452, "ARG_OF_PERICENTER": 194.9897, "MEAN_ANOMALY": 163.6087, "EPHEMERIS_TYPE": 0, "CLASSIFICATION_TYPE": "U", "NORAD_CAT_ID": 31861, "ELEMENT_SET_NO": 999, "REV_AT_EPOCH": 66829, "BSTAR": 0.0021126769, "MEAN_MOTION_DOT": 1.896e-05, "MEAN_MOTION_DDOT": 0}, "tle": {"line1": "1 31861U 99025CKB 25351.38577738  .00001896  00000+0  21127-2 0  9996", "line2": "2 31861 102.3406 184.9452 0494739 194.9897 163.6087 13.30336222668290"}}, "geometry": {"type": "Point", "coordinates": [-111.6799303028566, -75.4131664449744]}}, {"type": "Feature", "properties": {"norad_id": 31877, "name": "FENGYUN 1C DEB", "group": "fengyun-1c-debris", "lat": -30.06606801787807, "lon": 73.52301230797637, "alt_km": 557.2293099620838, "timestamp": "2025-12-22T11:33:20.724042+00:00", "meta": {"OBJECT_NAME": "FENGYUN 1C DEB", "OBJECT_ID": "1999-025CKC", "EPOCH": "2025-12-20T03:43:16.313952", "MEAN_MOTION": 15.01682853, "ECCENTRICITY": 0.01041709, "INCLINATION": 99.0076, "RA_OF_ASC_NODE": 65.5569, "ARG_OF_PERICENTER": 254.8079, "MEAN_ANOMALY": 104.1602, "EPHEMERIS_TYPE": 0, "CLASSIFICATION_TYPE": "U", "NORAD_CAT_ID": 31877, "ELEMENT_SET_NO": 999, "REV_AT_EPOCH": 99153, "BSTAR": 0.00062799185, "MEAN_MOTION_DOT": 9.091e-05, "MEAN_MOTION_DDOT": 0}, "tle": {"line1": "1 31877U 99025CKC 25354.15504993  .00009091  00000+0  62799-3 0  9990", "line2": "2 31877  99.0076  65.5569 0104170 254.8079 104.1602 15.01682853991533"}}, "geometry": {"type": "Point", "coordinates": [73.52301230797637, -30.06606801787807]}}, {"type": "Feature", "properties": {"norad_id": 31878, "name": "FENGYUN 1C DEB", "group": "fengyun-1c-debris", "lat": 0.6883258409141195, "lon": -78.27627913023294, "alt_km": 665.2220602008028, "timestamp": "2025-12-22T11:33:20.724052+00:00", "meta": {"OBJECT_NAME": "FENGYUN 1C DEB", "OBJECT_ID": "1999-025CKD", "EPOCH": "2025-12-21T12:55:43.069152", "MEAN_MOTION": 14.86026303, "ECCENTRICITY": 0.0083415, "INCLINATION": 99.4418, "RA_OF_ASC_NODE": 280.7207, "ARG_OF_PERICENTER": 210.3879, "MEAN_ANOMALY": 149.2482, "EPHEMERIS_TYPE": 0, "CLASSIFICATION_TYPE": "U", "NORAD_CAT_ID": 31878, "ELEMENT_SET_NO": 999, "REV_AT_EPOCH": 98224, "BSTAR": 0.00093453, "MEAN_MOTION_DOT": 8.633e-05, "MEAN_MOTION_DDOT": 0}, "tle": {"line1": "1 31878U 99025CKD 25355.53869293  .00008633  00000+0  93453-3 0  9993", "line2": "2 31878  99.4418 280.7207 0083415 210.3879 149.2482 14.86026303982249"}}, "geometry": {"type": "Point", "coordinates": [-78.27627913023294, 0.6883258409141195]}}, {"type": "Feature", "properties": {"norad_id": 31879, "name": "FENGYUN 1C DEB", "group": "fengyun-1c-debris", "lat": 77.51620603776992, "lon": -174.3382275237918, "alt_km": 696.3367373932633, "timestamp": "2025-12-22T11:33:20.724062+00:00", "meta": {"OBJECT_NAME": "FENGYUN 1C DEB", "OBJECT_ID": "1999-025CKE", "EPOCH": "2025-12-22T02:52:04.689408", "MEAN_MOTION": 14.42929876, "ECCENTRICITY": 0.0209633, "INCLINATION": 99.7075, "RA_OF_ASC_NODE": 235.8895, "ARG_OF_PERICENTER": 9.6265, "MEAN_ANOMALY": 350.8843, "EPHEMERIS_TYPE": 0, "CLASSIFICATION_TYPE": "U", "NORAD_CAT_ID": 31879, "ELEMENT_SET_NO": 999, "REV_AT_EPOCH": 63345, "BSTAR": 0.00031505, "MEAN_MOTION_DOT": 1.306e-05, "MEAN_MOTION_DDOT": 0}, "tle": {"line1": "1 31879U 99025CKE 25356.11949872  .00001306  00000+0  31505-3 0  9991", "line2": "2 31879  99.7075 235.8895 0209633   9.6265 350.8843 14.42929876633452"}}, "geometry": {"type": "Point", "coordinates": [-174.3382275237918, 77.51620603776992]}}]}